[{"icaoId":"KBWI","receiptTime":"2025-09-22T00:10:06.383Z","obsTime":1758499620,"reportTime":"2025-09-22T00:07:00.000Z","temp":20.6,"dewp":15,"wdir":120,"wspd":9,"visib":"10+","altim":1022.1,"qcField":4,"metarType":"SPECI","rawOb":"SPECI KBWI 220007Z 12009KT 10SM FEW015 OVC032 21/15 A3018 RMK AO2 T02060150","lat":39.1733,"lon":-76.684,"elev":42,"name":"Baltimore-Washington Intl, MD, US","cover":"OVC","clouds":[{"cover":"FEW","base":1500},{"cover":"OVC","base":3200}],"fltCat":"VFR"}]