[{"icaoId":"KDCA","receiptTime":"2025-09-21T23:56:23.910Z","obsTime":1758498720,"reportTime":"2025-09-22T00:00:00.000Z","temp":21.7,"dewp":16.7,"wdir":100,"wspd":6,"visib":"10+","altim":1021.8,"slp":1021.6,"qcField":4,"presTend":-0.5,"maxT":22.8,"minT":21.7,"metarType":"METAR","rawOb":"METAR KDCA 212352Z 10006KT 10SM BKN039 BKN250 22/17 A3017 RMK AO2 SLP216 T02170167 10228 20217 55005","lat":38.8472,"lon":-77.0345,"elev":4,"name":"Washington/Reagan-National Arpt, VA, US","cover":"BKN","clouds":[{"cover":"BKN","base":3900},{"cover":"BKN","base":25000}],"fltCat":"VFR"}]