[{"icaoId":"KIAD","receiptTime":"2025-09-21T23:56:24.048Z","obsTime":1758498720,"reportTime":"2025-09-22T00:00:00.000Z","temp":21.1,"dewp":16.1,"wdir":110,"wspd":5,"visib":"10+","altim":1021.8,"slp":1021.4,"qcField":12,"presTend":-0.6,"maxT":22.8,"minT":21.1,"metarType":"METAR","rawOb":"METAR KIAD 212352Z 11005KT 10SM SCT028 BKN040 21/16 A3017 RMK AO2 SLP214 T02110161 10228 20211 56006 $","lat":38.9348,"lon":-77.4473,"elev":90,"name":"Washington/Dulles Intl, VA, US","cover":"BKN","clouds":[{"cover":"SCT","base":2800},{"cover":"BKN","base":4000}],"fltCat":"VFR"}]