[{"icaoId":"KJFK","receiptTime":"2025-09-21T23:58:15.442Z","obsTime":1758498660,"reportTime":"2025-09-22T00:00:00.000Z","temp":15.6,"dewp":9.4,"wdir":90,"wspd":5,"visib":"10+","altim":1024.1,"slp":1023.9,"qcField":12,"presTend":-0.9,"maxT":21.1,"minT":15.6,"metarType":"METAR","rawOb":"METAR KJFK 212351Z 09005KT 10SM SCT250 16/09 A3024 RMK AO2 SLP239 T01560094 10211 20156 58009 $","lat":40.6392,"lon":-73.7639,"elev":3,"name":"New York/JF Kennedy Intl, NY, US","cover":"SCT","clouds":[{"cover":"SCT","base":25000}],"fltCat":"VFR"}]