[{"icaoId":"KPHL","receiptTime":"2025-09-22T00:02:12.285Z","obsTime":1758498840,"reportTime":"2025-09-22T00:00:00.000Z","temp":18.9,"dewp":10.6,"wdir":100,"wspd":10,"visib":"10+","altim":1023.1,"slp":1023.1,"qcField":12,"presTend":-0.1,"maxT":25,"minT":18.9,"metarType":"METAR","rawOb":"METAR KPHL 212354Z 10010KT 10SM FEW065 SCT150 BKN210 19/11 A3021 RMK AO2 SLP231 T01890106 10250 20189 58001 $","lat":39.8733,"lon":-75.2268,"elev":2,"name":"Philadelphia Intl, PA, US","cover":"BKN","clouds":[{"cover":"FEW","base":6500},{"cover":"SCT","base":15000},{"cover":"BKN","base":21000}],"fltCat":"VFR"}]